COSMOS 2251 DEB         
1 47060U 93036BXQ 21343.70287101  .00001670  00000+0  18074-3 0  9993
2 47060  73.7133 107.6026 0112486 351.7838  68.3905 14.84727796386173
COSMOS 2251 DEB         
1 47061U 93036BXR 21344.26782500  .00000945  00000+0  20297-3 0  9993
2 47061  74.0184 180.9516 0058677  61.9966  55.3891 14.58975069427888
COSMOS 2251 DEB         
1 47062U 93036BXS 21344.70165161  .00001189  00000+0  10010-2 0  9993
2 47062  74.0832 317.1813 0334556  56.9616 116.8789 13.65983180355881
COSMOS 2251 DEB         
1 47063U 93036BXT 21345.22637244  .00003461  00000+0  41056-3 0  9998
2 47063  73.9709 329.9150 0024294 186.5648 186.6743 14.84719654527429
COSMOS 2251 DEB         
1 47064U 93036BXU 21345.55611203  .00003313  00000+0  47108-3 0  9992
2 47064  74.0014  53.2119 0026143 242.1957 181.7703 14.77095281524323
COSMOS 2251 DEB         
1 47065U 93036BXV 21342.54544160  .00002137  00000+0  49136-3 0  9992
2 47065  74.0284 295.2363 0021197 342.0730 136.7272 14.55930803412180
COSMOS 2251 DEB         
1 47066U 93036BXW 21340.75899208  .00002962  00000+0  63171-3 0  9991
2 47066  74.0073  15.5013 0095879 120.1548 240.9159 14.56511535389770
COSMOS 2251 DEB         
1 47067U 93036BXX 21345.53422785  .00002022  00000+0  11713-2 0  9996
2 47067  74.2305 151.6618 0278881  55.7449   1.9328 13.91689143495100
COSMOS 2251 DEB         
1 47068U 93036BXY 21345.43262426  .00000474  00000+0  15907-3 0  9999
2 47068  74.0304  48.7903 0020589 133.4300 226.8572 14.39840086406357
COSMOS 2251 DEB         
1 47069U 93036BXZ 21343.84236731  .00000913  00000+0  26772-3 0  9993
2 47069  74.0314  15.8106 0015504  18.6061 341.5660 14.45228359511741
COSMOS 2251 DEB         
1 47070U 93036BYA 21344.27510800  .00001531  00000+0  38468-3 0  9997
2 47070  74.0730 346.0848 0053793  14.0365 358.4871 14.51283226426091
COSMOS 2251 DEB         
1 47071U 93036BYB 21325.97169616  .00001897  00000+0  86175-3 0  9992
2 47071  73.9303  70.4719 0169841 280.7788  77.4275 14.15160315399889
COSMOS 2251 DEB         
1 47072U 93036BYC 21345.05254566  .00001344  00000+0  42230-3 0  9994
2 47072  74.0380 110.8237 0068853 176.5922 183.5717 14.40090725400354
COSMOS 2251 DEB         
1 47073U 93036BYD 21343.37938935  .00000066  00000+0  53677-4 0  9995
2 47073  74.0840 220.2018 0170861 253.2796 104.9528 14.00974269398313
COSMOS 2251 DEB         
1 47074U 93036BYE 21344.56351076  .00000607  00000+0  26797-3 0  9996
2 47074  74.0943  58.4536 0171532  98.6814 326.9691 14.17658421483041
COSMOS 2251 DEB         
1 47075U 93036BYF 21343.40788374  .00002187  00000+0  42823-3 0  9997
2 47075  74.0120 231.6199 0014018 280.1018 196.2522 14.63401497300003
COSMOS 2251 DEB         
1 47076U 93036BYG 21338.83594132  .00002594  00000+0  68545-3 0  9997
2 47076  74.0105  25.4835 0030327  69.8019  49.7227 14.49108944489598
COSMOS 2251 DEB         
1 47077U 93036BYH 21345.03694529  .00001318  00000+0  23124-3 0  9996
2 47077  74.1237 217.0865 0084934 173.8861 253.4519 14.66471217415246
COSMOS 2251 DEB         
1 47116U 93036BYJ 21344.89276677  .00000697  00000+0  15687-3 0  9997
2 47116  74.0398 200.1904 0047928 310.1996  63.0954 14.57738026380086
COSMOS 2251 DEB         
1 47117U 93036BYK 21343.57591911  .00006688  00000+0  77172-3 0  9996
2 47117  74.0132  95.0932 0003853  44.1711 315.9775 14.85823826397401
COSMOS 2251 DEB         
1 47118U 93036BYL 21345.21302295  .00006219  00000+0  57571-3 0  9996
2 47118  74.0419 296.7739 0055782 340.4046  19.4992 14.93533487388830
COSMOS 2251 DEB         
1 47119U 93036BYM 21345.46994481  .00000638  00000+0  33388-3 0  9997
2 47119  74.0850 252.2727 0202004 288.8276 185.3078 14.06475324394165
COSMOS 2251 DEB         
1 48420U 93036BYN 21345.47677954  .00001834  00000+0  40132-3 0  9991
2 48420  74.0469 254.7968 0017317 340.8431  19.2081 14.58392119427280
